     2.100          NAVIGATION                              RINEX VERSION / TYPE
fic2rin                                 04/16/2013 00:33:52 PGM / RUN BY / DATE
                                                            END OF HEADER
30 13  4 15 14  0  0.0  .162189826369D-05 -.406998879043D-10  .000000000000D+00
     .910000000000D+02 -.780625000000D+02  .416660212713D-08  .235042336029D+01
    -.404566526413D-05  .109264255734D-01  .729598104954D-05  .515365065765D+04
     .136800000000D+06  .175088644028D-06 -.290779077876D+01 -.931322574615D-08
     .963758611706D+00  .239343750000D+03  .161209319340D+01 -.778711007868D-08
    -.108218793461D-09  .100000000000D+01  .173600000000D+04  .000000000000D+00
     .480000000000D+02  .630000000000D+02 -.419095158577D-08  .910000000000D+02
     .129606000000D+06  .400000000000D+01
31 13  4 15 14  0  0.0  .310742296278D-03  .147792889038D-11  .000000000000D+00
     .860000000000D+02 -.174375000000D+02  .418696011798D-08 -.474383975585D+00
    -.912696123123D-06  .795508304145D-02  .352971255779D-05  .515357487297D+04
     .136800000000D+06 -.502914190292D-07  .245322863509D+01 -.100582838058D-06
     .980517802685D+00  .323312500000D+03 -.745861023397D+00 -.819712715753D-08
    -.121433629627D-09  .100000000000D+01  .173600000000D+04  .000000000000D+00
     .240000000000D+01  .000000000000D+00 -.130385160446D-07  .860000000000D+02
     .129606000000D+06  .400000000000D+01
32 13  4 15 14  0  0.0 -.550465192646D-03 -.238742359215D-11  .000000000000D+00
     .530000000000D+02  .238437500000D+02  .488877506568D-08  .812718258006D-01
     .123865902424D-05  .115593943046D-01  .930391252041D-05  .515372066307D+04
     .136800000000D+06  .139698386192D-06  .420949678518D+00 -.838190317154D-07
     .949895793715D+00  .198437500000D+03 -.373106881102D+00 -.823641450830D-08
    -.210008747707D-09  .100000000000D+01  .173600000000D+04  .000000000000D+00
     .240000000000D+01  .000000000000D+00 -.325962901115D-08  .530000000000D+02
     .129606000000D+06  .400000000000D+01
14 13  4 15 13 59 44.0  .221088528633D-03  .000000000000D+00  .000000000000D+00
     .100000000000D+01  .814687500000D+02  .419838916547D-08  .217345888693D+01
     .409409403801D-05  .676534336526D-02  .678189098835D-05  .515373385620D+04
     .136784000000D+06 -.149011611938D-07  .145208191736D+01 -.165775418282D-06
     .974500595336D+00  .254718750000D+03 -.203178604242D+01 -.786997067301D-08
     .464305054455D-10  .100000000000D+01  .173600000000D+04  .000000000000D+00
     .240000000000D+01  .000000000000D+00 -.884756445885D-08  .100000000000D+01
     .135456000000D+06  .400000000000D+01
14 13  4 15 15 59 44.0  .221088528633D-03  .000000000000D+00  .000000000000D+00
     .600000000000D+01  .860312500000D+02  .423196199249D-08 -.305955330636D+01
     .452063977718D-05  .676475593355D-02  .699236989021D-05  .515373468590D+04
     .143984000000D+06  .949949026108D-07  .145202531706D+01 -.132247805595D-06
     .974501007879D+00  .249031250000D+03 -.203181689097D+01 -.786104172966D-08
     .742888087128D-10  .100000000000D+01  .173600000000D+04  .000000000000D+00
     .240000000000D+01  .000000000000D+00 -.884756445885D-08  .600000000000D+01
     .136806000000D+06  .400000000000D+01
 1 13  4 15 16  0  0.0  .165039673448D-04  .352429196937D-11  .000000000000D+00
     .700000000000D+02 -.746875000000D+01  .479734268572D-08  .123936299029D+01
    -.543892383575D-06  .174684403464D-02  .621564686298D-05  .515369644928D+04
     .144000000000D+06  .502914190292D-07 -.711889988253D+00  .149011611938D-07
     .960202529958D+00  .258937500000D+03  .291688800066D+00 -.817748348215D-08
     .392873507616D-11  .100000000000D+01  .173600000000D+04  .000000000000D+00
     .240000000000D+01  .000000000000D+00  .838190317154D-08  .700000000000D+02
     .136806000000D+06  .400000000000D+01
 2 13  4 15 16  0  0.0  .427429098636D-03  .181898940355D-11  .000000000000D+00
     .700000000000D+02 -.102812500000D+02  .525021869268D-08  .201857578391D+01
    -.484287738800D-06  .122707914561D-01  .634044408798D-05  .515363597870D+04
     .144000000000D+06 -.303611159325D-06 -.732614390890D+00  .279396772385D-07
     .938702043428D+00  .243656250000D+03 -.262094953183D+01 -.836677708128D-08
     .200008331150D-10  .100000000000D+01  .173600000000D+04  .000000000000D+00
     .240000000000D+01  .000000000000D+00 -.176951289177D-07  .700000000000D+02
     .136806000000D+06  .400000000000D+01
 3 13  4 15 16  0  0.0  .194425228983D-03  .488853402203D-11  .000000000000D+00
     .500000000000D+02 -.187812500000D+02  .485555939640D-08  .219492295265D+01
    -.112503767014D-05  .161045669811D-01  .851042568684D-05  .515369102097D+04
     .144000000000D+06  .210478901863D-06 -.190210575706D+01 -.294297933578D-06
     .933823929926D+00  .199937500000D+03  .127915759803D+01 -.799354724904D-08
     .380372986919D-09  .100000000000D+01  .173600000000D+04  .000000000000D+00
     .240000000000D+01  .000000000000D+00 -.465661287308D-08  .500000000000D+02
     .136806000000D+06  .400000000000D+01
 4 13  4 15 16  0  0.0  .191205181181D-03  .108002495836D-10  .000000000000D+00
     .790000000000D+02 -.818750000000D+01  .528950604344D-08 -.103800856239D+01
    -.689178705215D-07  .103075552033D-01  .593811273575D-05  .515377034378D+04
     .144000000000D+06  .126659870148D-06 -.716114645507D+00  .201165676117D-06
     .937750801428D+00  .248843750000D+03  .969541665851D+00 -.844678041374D-08
     .442875590403D-10  .100000000000D+01  .173600000000D+04  .000000000000D+00
     .240000000000D+01  .000000000000D+00 -.605359673500D-08  .790000000000D+02
     .136806000000D+06  .400000000000D+01
 5 13  4 15 16  0  0.0 -.391702167690D-03 -.125055521494D-11  .000000000000D+00
     .790000000000D+02  .234062500000D+02  .481627204563D-08 -.211615045510D+01
     .962987542152D-06  .303480005823D-02  .948645174503D-05  .515359674835D+04
     .144000000000D+06  .577419996262D-07  .332032971992D+00 -.931322574615D-07
     .949366174946D+00  .191156250000D+03  .297031479296D+00 -.804462080503D-08
    -.246081678861D-09  .100000000000D+01  .173600000000D+04  .000000000000D+00
     .240000000000D+01  .000000000000D+00 -.102445483208D-07  .790000000000D+02
     .136806000000D+06  .400000000000D+01
 6 13  4 15 16  0  0.0  .272537581623D-03 -.156887836056D-10  .000000000000D+00
     .440000000000D+02 -.909375000000D+01  .478091342995D-08 -.223006673608D+01
    -.387430191040D-06  .799265888054D-02  .886246562004D-05  .515368375969D+04
     .144000000000D+06 -.100582838058D-06 -.182293073613D+01  .130385160446D-07
     .940441044870D+00  .201250000000D+03 -.348195940467D+00 -.809855162290D-08
     .439304013061D-09  .100000000000D+01  .173600000000D+04  .000000000000D+00
     .240000000000D+01  .000000000000D+00 -.512227416039D-08  .440000000000D+02
     .136806000000D+06  .400000000000D+01
 7 13  4 15 16  0  0.0  .203006900847D-03  .420641299570D-11  .000000000000D+00
     .600000000000D+02 -.145937500000D+02  .440589780904D-08  .636049376021D+00
    -.741332769394D-06  .621267408133D-02  .284239649773D-05  .515369812012D+04
     .144000000000D+06  .633299350739D-07  .244882599630D+01  .372529029846D-07
     .975507179527D+00  .327781250000D+03 -.293447478488D+01 -.826998733531D-08
    -.237152735506D-09  .100000000000D+01  .173600000000D+04  .000000000000D+00
     .240000000000D+01  .000000000000D+00 -.107102096081D-07  .600000000000D+02
     .136806000000D+06  .400000000000D+01
 8 13  4 15 16  0  0.0  .563589856029D-05  .227373675443D-12  .000000000000D+00
     .780000000000D+02 -.265312500000D+02  .391302013585D-08  .964244781808D-01
    -.149197876453D-05  .128275668249D-01  .350549817085D-05  .515373038483D+04
     .144000000000D+06  .150874257088D-06  .253915388188D+01  .540167093277D-07
     .998232118249D+00  .327625000000D+03 -.287932615849D+01 -.810962351266D-08
    -.238581366443D-09  .100000000000D+01  .173600000000D+04  .000000000000D+00
     .240000000000D+01  .000000000000D+00 -.419095158577D-08  .780000000000D+02
     .136806000000D+06  .400000000000D+01
 9 13  4 15 16  0  0.0  .234284438193D-03  .272848410532D-11  .000000000000D+00
     .107000000000D+03 -.102812500000D+02  .425767734935D-08  .105816282343D+01
    -.970438122749D-06  .173062559916D-01  .363029539585D-05  .515279650116D+04
     .144000000000D+06 -.244006514549D-06  .242532202444D+01 -.318512320518D-06
     .984135021242D+00  .325093750000D+03  .164737302674D+01 -.832820404598D-08
    -.155720772109D-09  .100000000000D+01  .173600000000D+04  .000000000000D+00
     .240000000000D+01  .000000000000D+00 -.558793544769D-08  .107000000000D+03
     .136806000000D+06  .400000000000D+01
10 13  4 15 16  0  0.0 -.767176970840D-04 -.113686837722D-11  .000000000000D+00
     .470000000000D+02  .272812500000D+02  .487841749138D-08 -.185257841094D+01
     .118836760521D-05  .123519925401D-01  .900961458683D-05  .515362538719D+04
     .144000000000D+06  .163912773132D-06  .351698088814D+00 -.614672899246D-07
     .944194667372D+00  .192812500000D+03  .800373099026D+00 -.795140263641D-08
    -.102504269714D-09  .100000000000D+01  .173600000000D+04  .000000000000D+00
     .340000000000D+01  .000000000000D+00 -.232830643654D-08  .470000000000D+02
     .136806000000D+06  .400000000000D+01
11 13  4 15 16  0  0.0 -.372603069991D-03 -.363797880709D-11  .000000000000D+00
     .170000000000D+02  .356250000000D+01  .654134390180D-08  .840317151154D+00
     .130385160446D-06  .138960194308D-01  .587292015553D-05  .515368123055D+04
     .144000000000D+06 -.186264514923D-06 -.100574976460D+01  .502914190292D-07
     .888610577077D+00  .229218750000D+03  .115642588681D+01 -.926645741372D-08
     .875036448780D-10  .100000000000D+01  .173600000000D+04  .000000000000D+00
     .240000000000D+01  .000000000000D+00 -.116415321827D-07  .170000000000D+02
     .136806000000D+06  .400000000000D+01
